[{"OBJECT_NAME":"QB50P1","OBJECT_ID":"2014-033R","EPOCH":"2026-03-03T21:40:47.192736","MEAN_MOTION":15.16365653,"ECCENTRICITY":0.0007737,"INCLINATION":98.0997,"RA_OF_ASC_NODE":66.7953,"ARG_OF_PERICENTER":216.5301,"MEAN_ANOMALY":143.5403,"EPHEMERIS_TYPE":0,"CLASSIFICATION_TYPE":"U","NORAD_CAT_ID":40025,"ELEMENT_SET_NO":999,"REV_AT_EPOCH":63706,"BSTAR":0.00074272,"MEAN_MOTION_DOT":0.00014367,"MEAN_MOTION_DDOT":0},{"OBJECT_NAME":"DTUSAT-2","OBJECT_ID":"2014-033W","EPOCH":"2026-03-03T12:15:23.360256","MEAN_MOTION":15.13390777,"ECCENTRICITY":0.00064858,"INCLINATION":98.0839,"RA_OF_ASC_NODE":53.672,"ARG_OF_PERICENTER":227.3263,"MEAN_ANOMALY":132.7421,"EPHEMERIS_TYPE":0,"CLASSIFICATION_TYPE":"U","NORAD_CAT_ID":40030,"ELEMENT_SET_NO":999,"REV_AT_EPOCH":63669,"BSTAR":0.00061097947,"MEAN_MOTION_DOT":0.00010845,"MEAN_MOTION_DDOT":0},{"OBJECT_NAME":"QB50P2","OBJECT_ID":"2014-033Y","EPOCH":"2026-03-03T21:53:06.620352","MEAN_MOTION":15.13535092,"ECCENTRICITY":0.0007968,"INCLINATION":98.0725,"RA_OF_ASC_NODE":53.3824,"ARG_OF_PERICENTER":159.9776,"MEAN_ANOMALY":200.1768,"EPHEMERIS_TYPE":0,"CLASSIFICATION_TYPE":"U","NORAD_CAT_ID":40032,"ELEMENT_SET_NO":999,"REV_AT_EPOCH":63673,"BSTAR":0.00073872,"MEAN_MOTION_DOT":0.00013188,"MEAN_MOTION_DDOT":0},{"OBJECT_NAME":"PERSEUS-M1","OBJECT_ID":"2014-033AF","EPOCH":"2026-03-03T18:50:29.231520","MEAN_MOTION":14.9521552,"ECCENTRICITY":0.00100016,"INCLINATION":97.9552,"RA_OF_ASC_NODE":5.2819,"ARG_OF_PERICENTER":290.8329,"MEAN_ANOMALY":69.182,"EPHEMERIS_TYPE":0,"CLASSIFICATION_TYPE":"U","NORAD_CAT_ID":40039,"ELEMENT_SET_NO":999,"REV_AT_EPOCH":63488,"BSTAR":0.00035462209,"MEAN_MOTION_DOT":3.842e-5,"MEAN_MOTION_DDOT":0},{"OBJECT_NAME":"POLYITAN-1","OBJECT_ID":"2014-033AJ","EPOCH":"2026-03-03T12:34:49.528704","MEAN_MOTION":15.2922377,"ECCENTRICITY":0.0008872,"INCLINATION":98.1046,"RA_OF_ASC_NODE":79.0575,"ARG_OF_PERICENTER":145.7003,"MEAN_ANOMALY":214.481,"EPHEMERIS_TYPE":0,"CLASSIFICATION_TYPE":"U","NORAD_CAT_ID":40042,"ELEMENT_SET_NO":999,"REV_AT_EPOCH":63742,"BSTAR":0.00093821,"MEAN_MOTION_DOT":0.00026616,"MEAN_MOTION_DDOT":0},{"OBJECT_NAME":"TIGRISAT","OBJECT_ID":"2014-033AK","EPOCH":"2026-03-03T15:49:20.204832","MEAN_MOTION":14.8468903,"ECCENTRICITY":0.0050719,"INCLINATION":97.7658,"RA_OF_ASC_NODE":215.2119,"ARG_OF_PERICENTER":61.7673,"MEAN_ANOMALY":298.8649,"EPHEMERIS_TYPE":0,"CLASSIFICATION_TYPE":"U","NORAD_CAT_ID":40043,"ELEMENT_SET_NO":999,"REV_AT_EPOCH":62996,"BSTAR":0.00038381,"MEAN_MOTION_DOT":3.27e-5,"MEAN_MOTION_DDOT":0},{"OBJECT_NAME":"AISAT","OBJECT_ID":"2014-034B","EPOCH":"2026-03-04T04:11:09.695328","MEAN_MOTION":15.06534397,"ECCENTRICITY":0.0008366,"INCLINATION":98.2461,"RA_OF_ASC_NODE":328.0842,"ARG_OF_PERICENTER":206.8645,"MEAN_ANOMALY":153.2148,"EPHEMERIS_TYPE":0,"CLASSIFICATION_TYPE":"U","NORAD_CAT_ID":40054,"ELEMENT_SET_NO":999,"REV_AT_EPOCH":63138,"BSTAR":0.0012042,"MEAN_MOTION_DOT":0.00017783,"MEAN_MOTION_DDOT":0},{"OBJECT_NAME":"CANX-4","OBJECT_ID":"2014-034C","EPOCH":"2026-03-04T02:29:02.520960","MEAN_MOTION":14.81045171,"ECCENTRICITY":0.0012721,"INCLINATION":98.3286,"RA_OF_ASC_NODE":294.4765,"ARG_OF_PERICENTER":354.7487,"MEAN_ANOMALY":5.3588,"EPHEMERIS_TYPE":0,"CLASSIFICATION_TYPE":"U","NORAD_CAT_ID":40055,"ELEMENT_SET_NO":999,"REV_AT_EPOCH":62897,"BSTAR":0.00021693,"MEAN_MOTION_DOT":1.627e-5,"MEAN_MOTION_DDOT":0},{"OBJECT_NAME":"CANX-5","OBJECT_ID":"2014-034D","EPOCH":"2026-03-04T02:28:31.062720","MEAN_MOTION":14.81061928,"ECCENTRICITY":0.0012729,"INCLINATION":98.3289,"RA_OF_ASC_NODE":294.5136,"ARG_OF_PERICENTER":354.9494,"MEAN_ANOMALY":5.1587,"EPHEMERIS_TYPE":0,"CLASSIFICATION_TYPE":"U","NORAD_CAT_ID":40056,"ELEMENT_SET_NO":999,"REV_AT_EPOCH":61978,"BSTAR":0.00021838,"MEAN_MOTION_DOT":1.639e-5,"MEAN_MOTION_DDOT":0},{"OBJECT_NAME":"VELOX-I","OBJECT_ID":"2014-034E","EPOCH":"2026-03-04T03:26:50.591904","MEAN_MOTION":14.96782815,"ECCENTRICITY":0.0005534,"INCLINATION":98.2656,"RA_OF_ASC_NODE":322.2289,"ARG_OF_PERICENTER":258.9641,"MEAN_ANOMALY":101.0956,"EPHEMERIS_TYPE":0,"CLASSIFICATION_TYPE":"U","NORAD_CAT_ID":40057,"ELEMENT_SET_NO":999,"REV_AT_EPOCH":63088,"BSTAR":0.00065012,"MEAN_MOTION_DOT":7.381e-5,"MEAN_MOTION_DDOT":0},{"OBJECT_NAME":"GONETS-M 10","OBJECT_ID":"2014-036C","EPOCH":"2026-03-04T04:30:03.307392","MEAN_MOTION":12.42942036,"ECCENTRICITY":0.0022489,"INCLINATION":82.5151,"RA_OF_ASC_NODE":12.884,"ARG_OF_PERICENTER":13.8614,"MEAN_ANOMALY":346.3078,"EPHEMERIS_TYPE":0,"CLASSIFICATION_TYPE":"U","NORAD_CAT_ID":40063,"ELEMENT_SET_NO":999,"REV_AT_EPOCH":52920,"BSTAR":-0.00028712,"MEAN_MOTION_DOT":-3.0e-7,"MEAN_MOTION_DDOT":0},{"OBJECT_NAME":"METEOR-M 2","OBJECT_ID":"2014-037A","EPOCH":"2026-03-04T02:56:17.452608","MEAN_MOTION":14.21427197,"ECCENTRICITY":0.0005702,"INCLINATION":98.5011,"RA_OF_ASC_NODE":42.6388,"ARG_OF_PERICENTER":354.274,"MEAN_ANOMALY":5.8371,"EPHEMERIS_TYPE":0,"CLASSIFICATION_TYPE":"U","NORAD_CAT_ID":40069,"ELEMENT_SET_NO":999,"REV_AT_EPOCH":60439,"BSTAR":0.00025796,"MEAN_MOTION_DOT":5.22e-6,"MEAN_MOTION_DDOT":0},{"OBJECT_NAME":"DX1","OBJECT_ID":"2014-037C","EPOCH":"2026-03-04T04:24:10.963008","MEAN_MOTION":14.89591666,"ECCENTRICITY":0.0005706,"INCLINATION":98.3758,"RA_OF_ASC_NODE":18.6193,"ARG_OF_PERICENTER":253.0005,"MEAN_ANOMALY":107.0586,"EPHEMERIS_TYPE":0,"CLASSIFICATION_TYPE":"U","NORAD_CAT_ID":40071,"ELEMENT_SET_NO":999,"REV_AT_EPOCH":63047,"BSTAR":0.0002592,"MEAN_MOTION_DOT":2.413e-5,"MEAN_MOTION_DDOT":0},{"OBJECT_NAME":"UKUBE-1","OBJECT_ID":"2014-037F","EPOCH":"2026-03-03T12:39:59.681376","MEAN_MOTION":15.1162333,"ECCENTRICITY":0.0002618,"INCLINATION":98.422,"RA_OF_ASC_NODE":54.8631,"ARG_OF_PERICENTER":118.8048,"MEAN_ANOMALY":241.3443,"EPHEMERIS_TYPE":0,"CLASSIFICATION_TYPE":"U","NORAD_CAT_ID":40074,"ELEMENT_SET_NO":999,"REV_AT_EPOCH":63258,"BSTAR":0.0008387,"MEAN_MOTION_DOT":0.00014194,"MEAN_MOTION_DDOT":0},{"OBJECT_NAME":"GAOFEN-2","OBJECT_ID":"2014-049A","EPOCH":"2026-03-04T04:07:27.451200","MEAN_MOTION":14.80759331,"ECCENTRICITY":0.0006652,"INCLINATION":98.024,"RA_OF_ASC_NODE":127.4319,"ARG_OF_PERICENTER":204.4821,"MEAN_ANOMALY":155.6076,"EPHEMERIS_TYPE":0,"CLASSIFICATION_TYPE":"U","NORAD_CAT_ID":40118,"ELEMENT_SET_NO":999,"REV_AT_EPOCH":62369,"BSTAR":4.0839e-5,"MEAN_MOTION_DOT":2.61e-6,"MEAN_MOTION_DDOT":0},{"OBJECT_NAME":"BRITE-PL2 (HEWELIUSZ)","OBJECT_ID":"2014-049B","EPOCH":"2026-03-03T18:43:02.756928","MEAN_MOTION":14.94142812,"ECCENTRICITY":0.00155044,"INCLINATION":97.8981,"RA_OF_ASC_NODE":174.0764,"ARG_OF_PERICENTER":99.559,"MEAN_ANOMALY":260.7382,"EPHEMERIS_TYPE":0,"CLASSIFICATION_TYPE":"U","NORAD_CAT_ID":40119,"ELEMENT_SET_NO":999,"REV_AT_EPOCH":62570,"BSTAR":0.00034734482,"MEAN_MOTION_DOT":3.666e-5,"MEAN_MOTION_DDOT":0},{"OBJECT_NAME":"CBERS 4","OBJECT_ID":"2014-079A","EPOCH":"2026-03-04T04:57:13.811904","MEAN_MOTION":14.35410996,"ECCENTRICITY":7.84e-5,"INCLINATION":98.3498,"RA_OF_ASC_NODE":123.3949,"ARG_OF_PERICENTER":54.8928,"MEAN_ANOMALY":305.2331,"EPHEMERIS_TYPE":0,"CLASSIFICATION_TYPE":"U","NORAD_CAT_ID":40336,"ELEMENT_SET_NO":999,"REV_AT_EPOCH":58889,"BSTAR":5.1163e-5,"MEAN_MOTION_DOT":1.05e-6,"MEAN_MOTION_DDOT":0}]
